{"type": "FeatureCollection", "features": [ {"type": "Feature", "properties": {"norad_id": 40664, "name": "SKY MEXICO-1", "group": "intelsat", "lat": -0.03119704488878519, "lon": -71.39158301756297, "alt_km": 35775.40760234387, "timestamp": "2025-12-04T19:33:59.298958+00:00", "meta": {"OBJECT_NAME": "SKY MEXICO-1", "OBJECT_ID": "2015-026B", "EPOCH": "2025-12-04T06:30:12.684960", "MEAN_MOTION": 1.00270287, "ECCENTRICITY": 0.00028185, "INCLINATION": 0.0165, "RA_OF_ASC_NODE": 346.5153, "ARG_OF_PERICENTER": 281.2845, "MEAN_ANOMALY": 184.3393, "EPHEMERIS_TYPE": 0, "CLASSIFICATION_TYPE": "U", "NORAD_CAT_ID": 40664, "ELEMENT_SET_NO": 999, "REV_AT_EPOCH": 3850, "BSTAR": 0, "MEAN_MOTION_DOT": -2.19e-06, "MEAN_MOTION_DDOT": 0}, "tle": {"line1": "1 40664U 15026B   25338.27098015 -.00000219  00000+0  00000+0 0  9998", "line2": "2 40664   0.0165 346.5153 0002818 281.2845 184.3393  1.00270287 38504"}}, "geometry": {"type": "Point", "coordinates": [-71.39158301756297, -0.03119704488878519]}}, {"type": "Feature", "properties": {"norad_id": 40874, "name": "INTELSAT 34 (IS-34)", "group": "intelsat", "lat": -0.00633462109759913, "lon": -48.141631472794025, "alt_km": 35788.14378157172, "timestamp": "2025-12-04T19:33:59.298968+00:00", "meta": {"OBJECT_NAME": "INTELSAT 34 (IS-34)", "OBJECT_ID": "2015-039A", "EPOCH": "2025-12-04T06:36:49.552128", "MEAN_MOTION": 1.00269893, "ECCENTRICITY": 4.772e-05, "INCLINATION": 0.0125, "RA_OF_ASC_NODE": 319.1368, "ARG_OF_PERICENTER": 215.3754, "MEAN_ANOMALY": 302.5437, "EPHEMERIS_TYPE": 0, "CLASSIFICATION_TYPE": "U", "NORAD_CAT_ID": 40874, "ELEMENT_SET_NO": 999, "REV_AT_EPOCH": 3767, "BSTAR": 0, "MEAN_MOTION_DOT": -2.7e-06, "MEAN_MOTION_DDOT": 0}, "tle": {"line1": "1 40874U 15039A   25338.27557352 -.00000270  00000+0  00000+0 0  9996", "line2": "2 40874   0.0125 319.1368 0000477 215.3754 302.5437  1.00269893 37674"}}, "geometry": {"type": "Point", "coordinates": [-48.141631472794025, -0.00633462109759913]}}, {"type": "Feature", "properties": {"norad_id": 41581, "name": "INTELSAT 31 (IS-31)", "group": "intelsat", "lat": -0.0122106674822286, "lon": -87.67931005000933, "alt_km": 35781.46941595705, "timestamp": "2025-12-04T19:33:59.298979+00:00", "meta": {"OBJECT_NAME": "INTELSAT 31 (IS-31)", "OBJECT_ID": "2016-035A", "EPOCH": "2025-12-03T13:18:15.813216", "MEAN_MOTION": 1.0027005, "ECCENTRICITY": 0.00020986, "INCLINATION": 0.0165, "RA_OF_ASC_NODE": 271.6332, "ARG_OF_PERICENTER": 305.8436, "MEAN_ANOMALY": 319.6781, "EPHEMERIS_TYPE": 0, "CLASSIFICATION_TYPE": "U", "NORAD_CAT_ID": 41581, "ELEMENT_SET_NO": 999, "REV_AT_EPOCH": 3472, "BSTAR": 0, "MEAN_MOTION_DOT": -1.33e-06, "MEAN_MOTION_DDOT": 0}, "tle": {"line1": "1 41581U 16035A   25337.55434969 -.00000133  00000+0  00000+0 0  9995", "line2": "2 41581   0.0165 271.6332 0002098 305.8436 319.6781  1.00270050 34721"}}, "geometry": {"type": "Point", "coordinates": [-87.67931005000933, -0.0122106674822286]}}, {"type": "Feature", "properties": {"norad_id": 41747, "name": "INTELSAT 36 (IS-36)", "group": "intelsat", "lat": 0.03438288558895201, "lon": 75.87133667615213, "alt_km": 35790.01527204209, "timestamp": "2025-12-04T19:33:59.298989+00:00", "meta": {"OBJECT_NAME": "INTELSAT 36 (IS-36)", "OBJECT_ID": "2016-053A", "EPOCH": "2025-12-04T01:57:38.699424", "MEAN_MOTION": 1.00268863, "ECCENTRICITY": 0.00015024, "INCLINATION": 0.0131, "RA_OF_ASC_NODE": 2.8626, "ARG_OF_PERICENTER": 313.3444, "MEAN_ANOMALY": 214.8679, "EPHEMERIS_TYPE": 0, "CLASSIFICATION_TYPE": "U", "NORAD_CAT_ID": 41747, "ELEMENT_SET_NO": 999, "REV_AT_EPOCH": 3399, "BSTAR": 0, "MEAN_MOTION_DOT": -8e-08, "MEAN_MOTION_DDOT": 0}, "tle": {"line1": "1 41747U 16053A   25338.08169791 -.00000008  00000+0  00000+0 0  9997", "line2": "2 41747   0.0131   2.8626 0001502 313.3444 214.8679  1.00268863 33999"}}, "geometry": {"type": "Point", "coordinates": [75.87133667615213, 0.03438288558895201]}}, {"type": "Feature", "properties": {"norad_id": 41945, "name": "INTELSAT 32E (IS-32E)", "group": "intelsat", "lat": -0.02038460045543063, "lon": -35.82143619735461, "alt_km": 35785.71248616732, "timestamp": "2025-12-04T19:33:59.299000+00:00", "meta": {"OBJECT_NAME": "INTELSAT 32E (IS-32E)", "OBJECT_ID": "2017-007B", "EPOCH": "2025-12-04T06:40:19.217280", "MEAN_MOTION": 1.00269217, "ECCENTRICITY": 2.819e-05, "INCLINATION": 0.0333, "RA_OF_ASC_NODE": 74.4043, "ARG_OF_PERICENTER": 262.5397, "MEAN_ANOMALY": 153.3136, "EPHEMERIS_TYPE": 0, "CLASSIFICATION_TYPE": "U", "NORAD_CAT_ID": 41945, "ELEMENT_SET_NO": 999, "REV_AT_EPOCH": 3227, "BSTAR": 0, "MEAN_MOTION_DOT": -2.53e-06, "MEAN_MOTION_DDOT": 0}, "tle": {"line1": "1 41945U 17007B   25338.27800020 -.00000253  00000+0  00000+0 0  9997", "line2": "2 41945   0.0333  74.4043 0000281 262.5397 153.3136  1.00269217 32275"}}, "geometry": {"type": "Point", "coordinates": [-35.82143619735461, -0.02038460045543063]}}, {"type": "Feature", "properties": {"norad_id": 42818, "name": "INTELSAT 35E (IS-35E)", "group": "intelsat", "lat": -0.004224238924990131, "lon": -27.093612052899687, "alt_km": 35783.75328021262, "timestamp": "2025-12-04T19:33:59.299010+00:00", "meta": {"OBJECT_NAME": "INTELSAT 35E (IS-35E)", "OBJECT_ID": "2017-041A", "EPOCH": "2025-12-04T06:42:48.977856", "MEAN_MOTION": 1.00270645, "ECCENTRICITY": 0.0002436, "INCLINATION": 0.0021, "RA_OF_ASC_NODE": 9.1743, "ARG_OF_PERICENTER": 248.9142, "MEAN_ANOMALY": 241.4921, "EPHEMERIS_TYPE": 0, "CLASSIFICATION_TYPE": "U", "NORAD_CAT_ID": 42818, "ELEMENT_SET_NO": 999, "REV_AT_EPOCH": 3086, "BSTAR": 0, "MEAN_MOTION_DOT": -2.22e-06, "MEAN_MOTION_DDOT": 0}, "tle": {"line1": "1 42818U 17041A   25338.27973354 -.00000222  00000+0  00000+0 0  9992", "line2": "2 42818   0.0021   9.1743 0002436 248.9142 241.4921  1.00270645 30862"}}, "geometry": {"type": "Point", "coordinates": [-27.093612052899687, -0.004224238924990131]}}, {"type": "Feature", "properties": {"norad_id": 42950, "name": "INTELSAT 37E (IS-37E)", "group": "intelsat", "lat": 0.020189708984854015, "lon": -10.595796726595228, "alt_km": 35789.33360722015, "timestamp": "2025-12-04T19:33:59.299020+00:00", "meta": {"OBJECT_NAME": "INTELSAT 37E (IS-37E)", "OBJECT_ID": "2017-059A", "EPOCH": "2025-12-04T01:39:17.233344", "MEAN_MOTION": 1.00270752, "ECCENTRICITY": 0.00034695, "INCLINATION": 0.0176, "RA_OF_ASC_NODE": 319.8059, "ARG_OF_PERICENTER": 287.9884, "MEAN_ANOMALY": 192.1826, "EPHEMERIS_TYPE": 0, "CLASSIFICATION_TYPE": "U", "NORAD_CAT_ID": 42950, "ELEMENT_SET_NO": 999, "REV_AT_EPOCH": 3010, "BSTAR": 0, "MEAN_MOTION_DOT": -1.24e-06, "MEAN_MOTION_DDOT": 0}, "tle": {"line1": "1 42950U 17059A   25338.06894946 -.00000124  00000+0  00000+0 0  9995", "line2": "2 42950   0.0176 319.8059 0003469 287.9884 192.1826  1.00270752 30106"}}, "geometry": {"type": "Point", "coordinates": [-10.595796726595228, 0.020189708984854015]}}, {"type": "Feature", "properties": {"norad_id": 43632, "name": "AZERSPACE 2 (IS-38)", "group": "intelsat", "lat": 0.04023014314913328, "lon": 52.48408631401366, "alt_km": 35792.54183555317, "timestamp": "2025-12-04T19:33:59.299031+00:00", "meta": {"OBJECT_NAME": "AZERSPACE 2 (IS-38)", "OBJECT_ID": "2018-074A", "EPOCH": "2025-12-03T17:23:40.331904", "MEAN_MOTION": 1.0027174, "ECCENTRICITY": 0.00017416, "INCLINATION": 0.0176, "RA_OF_ASC_NODE": 347.6047, "ARG_OF_PERICENTER": 271.7152, "MEAN_ANOMALY": 119.5202, "EPHEMERIS_TYPE": 0, "CLASSIFICATION_TYPE": "U", "NORAD_CAT_ID": 43632, "ELEMENT_SET_NO": 999, "REV_AT_EPOCH": 2648, "BSTAR": 0, "MEAN_MOTION_DOT": 1.54e-06, "MEAN_MOTION_DDOT": 0}, "tle": {"line1": "1 43632U 18074A   25337.72477236  .00000154  00000+0  00000+0 0  9994", "line2": "2 43632   0.0176 347.6047 0001741 271.7152 119.5202  1.00271740 26485"}}, "geometry": {"type": "Point", "coordinates": [52.48408631401366, 0.04023014314913328]}}, {"type": "Feature", "properties": {"norad_id": 43633, "name": "HORIZONS-3E", "group": "intelsat", "lat": -0.020673223087506666, "lon": 176.35460970114164, "alt_km": 35790.364935636106, "timestamp": "2025-12-04T19:33:59.299041+00:00", "meta": {"OBJECT_NAME": "HORIZONS-3E", "OBJECT_ID": "2018-074B", "EPOCH": "2025-12-04T05:58:14.782080", "MEAN_MOTION": 1.00264233, "ECCENTRICITY": 0.00014859, "INCLINATION": 0.0356, "RA_OF_ASC_NODE": 203.2483, "ARG_OF_PERICENTER": 83.7127, "MEAN_ANOMALY": 44.9509, "EPHEMERIS_TYPE": 0, "CLASSIFICATION_TYPE": "U", "NORAD_CAT_ID": 43633, "ELEMENT_SET_NO": 999, "REV_AT_EPOCH": 2638, "BSTAR": 0, "MEAN_MOTION_DOT": -1.6e-07, "MEAN_MOTION_DDOT": 0}, "tle": {"line1": "1 43633U 18074B   25338.24878220 -.00000016  00000+0  00000+0 0  9999", "line2": "2 43633   0.0356 203.2483 0001485  83.7127  44.9509  1.00264233 26384"}}, "geometry": {"type": "Point", "coordinates": [176.35460970114164, -0.020673223087506666]}}, {"type": "Feature", "properties": {"norad_id": 44333, "name": "AT&T T-16", "group": "intelsat", "lat": -0.0240067480465607, "lon": -93.50954321084032, "alt_km": 35787.04104169209, "timestamp": "2025-12-04T19:33:59.299052+00:00", "meta": {"OBJECT_NAME": "AT&T T-16", "OBJECT_ID": "2019-034A", "EPOCH": "2025-12-04T06:23:50.795232", "MEAN_MOTION": 1.00268621, "ECCENTRICITY": 3.516e-05, "INCLINATION": 0.0347, "RA_OF_ASC_NODE": 76.5475, "ARG_OF_PERICENTER": 97.5301, "MEAN_ANOMALY": 254.3586, "EPHEMERIS_TYPE": 0, "CLASSIFICATION_TYPE": "U", "NORAD_CAT_ID": 44333, "ELEMENT_SET_NO": 999, "REV_AT_EPOCH": 2367, "BSTAR": 0, "MEAN_MOTION_DOT": -9.9e-07, "MEAN_MOTION_DDOT": 0}, "tle": {"line1": "1 44333U 19034A   25338.26656013 -.00000099  00000+0  00000+0 0  9991", "line2": "2 44333   0.0347  76.5475 0000351  97.5301 254.3586  1.00268621 23678"}}, "geometry": {"type": "Point", "coordinates": [-93.50954321084032, -0.0240067480465607]}}]}